[{"OBJECT_NAME":"LEMUR-2-BALTO","OBJECT_ID":"2025-052BH","EPOCH":"2026-03-09T16:40:42.002112","MEAN_MOTION":14.98934076,"ECCENTRICITY":0.00022794,"INCLINATION":97.6978,"RA_OF_ASC_NODE":323.5166,"ARG_OF_PERICENTER":359.2852,"MEAN_ANOMALY":0.8367,"EPHEMERIS_TYPE":0,"CLASSIFICATION_TYPE":"U","NORAD_CAT_ID":63395,"ELEMENT_SET_NO":999,"REV_AT_EPOCH":5385,"BSTAR":0.00063455958,"MEAN_MOTION_DOT":7.621e-5,"MEAN_MOTION_DDOT":0},{"OBJECT_NAME":"CZ-6A DEB","OBJECT_ID":"2022-151QF","EPOCH":"2026-03-08T03:18:15.836256","MEAN_MOTION":14.86025729,"ECCENTRICITY":0.00611616,"INCLINATION":98.6168,"RA_OF_ASC_NODE":140.6535,"ARG_OF_PERICENTER":185.9517,"MEAN_ANOMALY":174.0977,"EPHEMERIS_TYPE":0,"CLASSIFICATION_TYPE":"U","NORAD_CAT_ID":54894,"ELEMENT_SET_NO":999,"REV_AT_EPOCH":17291,"BSTAR":0.0053316953,"MEAN_MOTION_DOT":0.00048472,"MEAN_MOTION_DDOT":0}]
